NORAD_CAT_ID,OBJECT_NAME,OBJECT_TYPE,EPOCH,MEAN_MOTION,ECCENTRICITY,INCLINATION,RA_OF_ASC_NODE,ARG_OF_PERICENTER,MEAN_ANOMALY,BSTAR,MEAN_MOTION_DOT,MEAN_MOTION_DDOT,TLE_LINE0,TLE_LINE1,TLE_LINE2,SEMIMAJOR_AXIS,PERIOD,APOGEE,PERIGEE,DECAYED
51774.0,STARLINK-3629,PAYLOAD,2023-12-17 10:22:03,15.08829175,0.0001593,53.219,29.9797,78.2998,281.8173,-2.8382e-05,-7.4e-06,0.0,0 STARLINK-3629,1 51774U 22017G   23351.43198338 -.00000740  00000-0 -28382-4 0  9999,2 51774  53.2190  29.9797 0001593  78.2998 281.8173 15.08829175101299,6917.913,95.438,540.881,538.676,0.0
51774.0,STARLINK-3629,PAYLOAD,2023-12-18 10:12:47,15.08862753,0.0001824,53.2191,25.5204,65.6597,294.4586,0.00035613,5.388e-05,0.0,0 STARLINK-3629,1 51774U 22017G   23352.42555293  .00005388  00000-0  35613-3 0  9991,2 51774  53.2191  25.5204 0001824  65.6597 294.4586 15.08862753101441,6917.811,95.436,540.938,538.414,0.0
51774.0,STARLINK-3629,PAYLOAD,2023-12-19 08:28:12,15.08853254,0.0001908,53.2168,21.3614,157.1796,202.9281,8.7859e-05,1.111e-05,0.0,0 STARLINK-3629,1 51774U 22017G   23353.35291757  .00001111  00000-0  87859-4 0  9996,2 51774  53.2168  21.3614 0001908 157.1796 202.9281 15.08853254101582,6917.84,95.437,541.025,538.385,0.0
51774.0,STARLINK-3629,PAYLOAD,2023-12-20 08:19:00,15.08848772,0.0001384,53.2189,16.8982,103.027,257.0876,-0.00020606,-3.567e-05,0.0,0 STARLINK-3629,1 51774U 22017G   23354.34652908 -.00003567  00000-0 -20606-3 0  9990,2 51774  53.2189  16.8982 0001384 103.0270 257.0876 15.08848772101734,6917.854,95.437,540.676,538.761,0.0
51774.0,STARLINK-3629,PAYLOAD,2023-12-21 06:34:23,15.088461,0.0001502,53.2184,12.727,56.9505,303.1631,2.3202e-05,8.1e-07,0.0,0 STARLINK-3629,1 51774U 22017G   23355.27388482  .00000081  00000-0  23202-4 0  9998,2 51774  53.2184  12.7270 0001502  56.9505 303.1631 15.08846100100377,6917.862,95.437,540.766,538.688,0.0
51774.0,STARLINK-3629,PAYLOAD,2023-12-21 22:28:15,15.08835953,0.0001139,53.2182,9.7574,85.2529,274.8593,0.00011358,1.52e-05,0.0,0 STARLINK-3629,1 51774U 22017G   23355.93629117  .00001520  00000-0  11358-3 0  9991,2 51774  53.2182   9.7574 0001139  85.2529 274.8593 15.08835953101977,6917.893,95.438,540.546,538.97,0.0
51774.0,STARLINK-3629,PAYLOAD,2023-12-22 08:00:34,15.08832112,0.0001699,53.2183,7.9775,118.1907,241.9256,7.0815e-05,8.39e-06,0.0,0 STARLINK-3629,1 51774U 22017G   23356.33373596  .00000839  00000-0  70815-4 0  9999,2 51774  53.2183   7.9775 0001699 118.1907 241.9256 15.08832112100534,6917.904,95.438,540.945,538.594,0.0
51774.0,STARLINK-3629,PAYLOAD,2023-12-22 22:19:02,15.08866909,0.0002029,53.2184,5.3021,128.3348,231.7827,-0.00037441,-6.247e-05,0.0,0 STARLINK-3629,1 51774U 22017G   23356.92989501 -.00006247  00000-0 -37441-3 0  9991,2 51774  53.2184   5.3021 0002029 128.3348 231.7827 15.08866909102120,6917.798,95.436,541.067,538.26,0.0
51774.0,STARLINK-3629,PAYLOAD,2023-12-23 07:51:21,15.08846562,0.0001634,53.2179,3.5165,87.2289,272.889,0.00012964,1.776e-05,0.0,0 STARLINK-3629,1 51774U 22017G   23357.32733157  .00001776  00000-0  12964-3 0  9993,2 51774  53.2179   3.5165 0001634  87.2289 272.8890 15.08846562102186,6917.86,95.437,540.856,538.595,0.0
51774.0,STARLINK-3629,PAYLOAD,2023-12-23 23:45:11,15.08852794,0.0001939,53.2193,0.5423,119.1863,240.9323,0.00029442,4.402e-05,0.0,0 STARLINK-3629,1 51774U 22017G   23357.98971819  .00004402  00000-0  29442-3 0  9992,2 51774  53.2193   0.5423 0001939 119.1863 240.9323 15.08852794102289,6917.841,95.437,541.048,538.365,0.0
51774.0,STARLINK-3629,PAYLOAD,2023-12-24 09:17:33,15.08822696,0.0001765,53.218,358.7599,108.5498,251.5686,1.3425e-05,-7.4e-07,0.0,0 STARLINK-3629,1 51774U 22017G   23358.38718756 -.00000074  00000-0  13425-4 0  9993,2 51774  53.2180 358.7599 0001765 108.5498 251.5686 15.08822696102345,6917.933,95.439,541.019,538.577,0.0
51774.0,STARLINK-3629,PAYLOAD,2023-12-25 09:08:18,15.08847998,0.0001735,53.2169,354.2983,98.7708,261.348,0.00021857,3.193e-05,0.0,0 STARLINK-3629,1 51774U 22017G   23359.38077495  .00003193  00000-0  21857-3 0  9993,2 51774  53.2169 354.2983 0001735  98.7708 261.3480 15.08847998102490,6917.856,95.437,540.921,538.521,0.0
51774.0,STARLINK-3629,PAYLOAD,2023-12-26 04:12:57,15.08835874,0.0002422,53.2179,350.7261,124.4158,235.7063,0.00018871,2.716e-05,0.0,0 STARLINK-3629,1 51774U 22017G   23360.17566128  .00002716  00000-0  18871-3 0  9990,2 51774  53.2179 350.7261 0002422 124.4158 235.7063 15.08835874102617,6917.893,95.438,541.434,538.082,0.0
51774.0,STARLINK-3629,PAYLOAD,2023-12-26 08:59:06,15.08839957,0.0002031,53.218,349.8344,114.8152,245.3051,0.0002809,4.185e-05,0.0,0 STARLINK-3629,1 51774U 22017G   23360.37438193  .00004185  00000-0  28090-3 0  9998,2 51774  53.2180 349.8344 0002031 114.8152 245.3051 15.08839957101140,6917.881,95.438,541.151,538.34,0.0
51774.0,STARLINK-3629,PAYLOAD,2023-12-27 08:49:53,15.08858071,0.0001967,53.2174,345.373,110.8165,249.3037,0.00042494,6.485e-05,0.0,0 STARLINK-3629,1 51774U 22017G   23361.36797604  .00006485  00000-0  42494-3 0  9992,2 51774  53.2174 345.3730 0001967 110.8165 249.3037 15.08858071102798,6917.825,95.436,541.051,538.329,0.0
51774.0,STARLINK-3629,PAYLOAD,2023-12-28 03:54:31,15.0884445,0.0001917,53.2182,341.8065,106.9178,253.2024,0.00012951,1.774e-05,0.0,0 STARLINK-3629,1 51774U 22017G   23362.16286094  .00001774  00000-0  12951-3 0  9998,2 51774  53.2182 341.8065 0001917 106.9178 253.2024 15.08844450102914,6917.867,95.437,541.058,538.406,0.0
51774.0,STARLINK-3629,PAYLOAD,2023-12-28 08:40:40,15.08846873,0.0001676,53.2171,340.9126,104.7828,255.335,0.0002256,3.305e-05,0.0,0 STARLINK-3629,1 51774U 22017G   23362.36157989  .00003305  00000-0  22560-3 0  9999,2 51774  53.2171 340.9126 0001676 104.7828 255.3350 15.08846873101443,6917.859,95.437,540.884,538.565,0.0
51774.0,STARLINK-3629,PAYLOAD,2023-12-28 22:59:09,15.08831346,0.0001767,53.218,338.2318,85.6491,274.4703,-9.1584e-05,-1.745e-05,0.0,0 STARLINK-3629,1 51774U 22017G   23362.95774821 -.00001745  00000-0 -91584-4 0  9995,2 51774  53.2180 338.2318 0001767  85.6491 274.4703 15.08831346101533,6917.907,95.438,540.994,538.549,0.0
51774.0,STARLINK-3629,PAYLOAD,2023-12-29 03:45:19,15.08816192,0.0001603,53.2172,337.343,81.1107,279.0066,-0.00036271,-6.052e-05,0.0,0 STARLINK-3629,1 51774U 22017G   23363.15647600 -.00006052  00000-0 -36271-3 0  9999,2 51774  53.2172 337.3430 0001603  81.1107 279.0066 15.08816192103068,6917.953,95.439,540.927,538.709,0.0
51774.0,STARLINK-3629,PAYLOAD,2023-12-29 08:31:29,15.08812036,0.0001523,53.2179,336.45,98.2369,261.8796,-0.00037746,-6.286e-05,0.0,0 STARLINK-3629,1 51774U 22017G   23363.35520091 -.00006286  00000-0 -37746-3 0  9992,2 51774  53.2179 336.4500 0001523  98.2369 261.8796 15.08812036101591,6917.966,95.439,540.884,538.777,0.0
51774.0,STARLINK-3629,PAYLOAD,2023-12-30 03:36:05,15.08851465,0.0001575,53.2163,332.8826,103.7196,256.3972,0.00032349,4.866e-05,0.0,0 STARLINK-3629,1 51774U 22017G   23364.15006615  .00004866  00000-0  32349-3 0  9996,2 51774  53.2163 332.8826 0001575 103.7196 256.3972 15.08851465103217,6917.845,95.437,540.8,538.621,0.0
51774.0,STARLINK-3629,PAYLOAD,2023-12-30 05:11:28,15.08854937,0.0001422,53.2166,332.5934,86.5375,273.5779,0.00044917,6.871e-05,0.0,0 STARLINK-3629,1 51774U 22017G   23364.21630656  .00006871  00000-0  44917-3 0  9993,2 51774  53.2166 332.5934 0001422  86.5375 273.5779 15.08854937101722,6917.835,95.437,540.683,538.716,0.0
51774.0,STARLINK-3629,PAYLOAD,2023-12-31 03:26:53,15.08840548,0.0001496,53.2171,328.4183,112.7429,247.3721,0.00031091,4.664e-05,0.0,0 STARLINK-3629,1 51774U 22017G   23365.14367083  .00004664  00000-0  31091-3 0  9994,2 51774  53.2171 328.4183 0001496 112.7429 247.3721 15.08840548103362,6917.879,95.438,540.779,538.709,0.0
51774.0,STARLINK-3629,PAYLOAD,2023-12-31 08:13:02,15.08840226,0.000143,53.2167,327.5306,113.942,246.1722,0.00026702,3.964e-05,0.0,0 STARLINK-3629,1 51774U 22017G   23365.34239097  .00003964  00000-0  26702-3 0  9994,2 51774  53.2167 327.5306 0001430 113.9420 246.1722 15.08840226101893,6917.88,95.438,540.734,538.755,0.0
51774.0,STARLINK-3629,PAYLOAD,2024-01-01 04:53:03,15.08850694,0.0001343,53.2179,323.663,91.7539,268.3607,-1.5038e-05,-5.27e-06,0.0,0 STARLINK-3629,1 51774U 22017G   24001.20350915 -.00000527  00000-0 -15038-4 0  9995,2 51774  53.2179 323.6630 0001343  91.7539 268.3607 15.08850694103520,6917.848,95.437,540.642,538.784,0.0
51774.0,STARLINK-3629,PAYLOAD,2024-01-01 20:46:54,15.08843603,0.0001241,53.2178,320.6902,94.4509,265.6625,6.8334e-05,8e-06,0.0,0 STARLINK-3629,1 51774U 22017G   24001.86590922  .00000800  00000-0  68334-4 0  9990,2 51774  53.2178 320.6902 0001241  94.4509 265.6625 15.08843603102129,6917.869,95.437,540.593,538.876,0.0
51774.0,STARLINK-3629,PAYLOAD,2024-01-02 06:19:12,15.08858612,0.0001298,53.2167,318.9078,105.3774,254.7361,0.00027756,4.134e-05,0.0,0 STARLINK-3629,1 51774U 22017G   24002.26333710  .00004134  00000-0  27756-3 0  9991,2 51774  53.2167 318.9078 0001298 105.3774 254.7361 15.08858612103683,6917.824,95.436,540.586,538.791,0.0
51774.0,STARLINK-3629,PAYLOAD,2024-01-02 20:37:41,15.08843753,0.0001673,53.2175,316.2357,77.9026,282.2154,0.00013599,1.877e-05,0.0,0 STARLINK-3629,1 51774U 22017G   24002.85950635  .00001877  00000-0  13599-3 0  9998,2 51774  53.2175 316.2357 0001673  77.9026 282.2154 15.08843753102274,6917.869,95.437,540.891,538.577,0.0
51774.0,STARLINK-3629,PAYLOAD,2024-01-03 02:59:13,15.08844812,0.0001489,53.2172,315.0448,96.4039,263.7123,8.1286e-05,1.006e-05,0.0,0 STARLINK-3629,1 51774U 22017G   24003.12446384  .00001006  00000-0  81286-4 0  9993,2 51774  53.2172 315.0448 0001489  96.4039 263.7123 15.08844812103812,6917.866,95.437,540.761,538.701,0.0
51774.0,STARLINK-3629,PAYLOAD,2024-01-03 06:09:59,15.08850067,0.0001447,53.217,314.4497,88.7696,271.3462,0.00018136,2.6e-05,0.0,0 STARLINK-3629,1 51774U 22017G   24003.25694164  .00002600  00000-0  18136-3 0  9992,2 51774  53.2170 314.4497 0001447  88.7696 271.3462 15.08850067102330,6917.85,95.437,540.716,538.714,0.0
